{
	"type": "FeatureCollection",
	"features": [
		{
			"type": "Feature",
			"properties": {
				"heat_score": 0.5164795154843718,
				"heat_tier": "Moderate",
				"_mireye": {
					"fields": {
						"tree_canopy_pct": 11,
						"land_use_class": "Developed",
						"lcms_class": "Barren or Impervious",
						"ndvi_change_5y": -0.3476130738854408,
						"slope_degrees": 0.5242899060249329,
						"surface_water_permanence_pct": 0,
						"coast_distance_m": 464254.8517463682,
						"soil_drainage_class": "Well drained"
					},
					"climate": 172
				}
			},
			"geometry": {
				"type": "Point",
				"coordinates": [
					-112.194,
					33.43125714285714
				]
			}
		},
		{
			"type": "Feature",
			"properties": {
				"heat_score": 0.46370118622773077,
				"heat_tier": "Moderate",
				"_mireye": {
					"fields": {
						"tree_canopy_pct": 0,
						"land_use_class": "Rangeland or Pasture",
						"lcms_class": "Barren or Impervious",
						"ndvi_change_5y": -0.03566102683544159,
						"slope_degrees": 4.4896111488342285,
						"surface_water_permanence_pct": 0,
						"coast_distance_m": 463654.1145531773,
						"soil_drainage_class": "Excessively drained"
					},
					"climate": 172
				}
			},
			"geometry": {
				"type": "Point",
				"coordinates": [
					-112.194,
					33.39697142857143
				]
			}
		},
		{
			"type": "Feature",
			"properties": {
				"heat_score": 0.49124302667735686,
				"heat_tier": "Moderate",
				"_mireye": {
					"fields": {
						"tree_canopy_pct": 0,
						"land_use_class": "Rangeland or Pasture",
						"lcms_class": "Barren & Shrubs Mix",
						"ndvi_change_5y": 0.039407119154930115,
						"slope_degrees": 0.40313151478767395,
						"surface_water_permanence_pct": 0,
						"coast_distance_m": 462543.94415536127,
						"soil_drainage_class": "Well drained"
					},
					"climate": 173
				}
			},
			"geometry": {
				"type": "Point",
				"coordinates": [
					-112.194,
					33.3284
				]
			}
		},
		{
			"type": "Feature",
			"properties": {
				"heat_score": 0.5147279697243531,
				"heat_tier": "Moderate",
				"_mireye": {
					"fields": {
						"tree_canopy_pct": 0,
						"land_use_class": "Agriculture",
						"lcms_class": "Grass/Forb/Herb",
						"ndvi_change_5y": -0.15096469223499298,
						"slope_degrees": 0.7071430087089539,
						"surface_water_permanence_pct": 0,
						"coast_distance_m": 463083.7747145961,
						"soil_drainage_class": "Well drained"
					},
					"climate": 172
				}
			},
			"geometry": {
				"type": "Point",
				"coordinates": [
					-112.194,
					33.36268571428572
				]
			}
		},
		{
			"type": "Feature",
			"properties": {
				"heat_score": 0.9583784109317722,
				"heat_tier": "High",
				"_mireye": {
					"fields": {
						"tree_canopy_pct": 0,
						"land_use_class": "Developed",
						"lcms_class": "Barren or Impervious",
						"ndvi_change_5y": 0.007759515196084976,
						"slope_degrees": 1.1360394954681396,
						"surface_water_permanence_pct": 0,
						"coast_distance_m": 464885.8689708882,
						"soil_drainage_class": "Well drained"
					},
					"climate": 171
				}
			},
			"geometry": {
				"type": "Point",
				"coordinates": [
					-112.194,
					33.46554285714286
				]
			}
		},
		{
			"type": "Feature",
			"properties": {
				"heat_score": 0.44302913302171654,
				"heat_tier": "Moderate",
				"_mireye": {
					"fields": {
						"tree_canopy_pct": 0,
						"land_use_class": "Rangeland or Pasture",
						"lcms_class": "Grass/Forb/Herb",
						"ndvi_change_5y": -0.03112417459487915,
						"slope_degrees": 1.082911729812622,
						"surface_water_permanence_pct": 0,
						"coast_distance_m": 465547.0436161966,
						"soil_drainage_class": "Well drained"
					},
					"climate": 171
				}
			},
			"geometry": {
				"type": "Point",
				"coordinates": [
					-112.194,
					33.49982857142857
				]
			}
		},
		{
			"type": "Feature",
			"properties": {
				"heat_score": 0.3498031979447272,
				"heat_tier": "Lower",
				"_mireye": {
					"fields": {
						"tree_canopy_pct": 0,
						"land_use_class": "Rangeland or Pasture",
						"lcms_class": "Grass/Forb/Herb",
						"ndvi_change_5y": -0.017979443073272705,
						"slope_degrees": 0.9861850142478943,
						"surface_water_permanence_pct": 0,
						"coast_distance_m": 466959.3468543196,
						"soil_drainage_class": "Well drained"
					},
					"climate": 168
				}
			},
			"geometry": {
				"type": "Point",
				"coordinates": [
					-112.194,
					33.568400000000004
				]
			}
		},
		{
			"type": "Feature",
			"properties": {
				"heat_score": 0.9558060939701498,
				"heat_tier": "High",
				"_mireye": {
					"fields": {
						"tree_canopy_pct": 0,
						"land_use_class": "Developed",
						"lcms_class": "Barren or Impervious",
						"ndvi_change_5y": 0.011227861046791077,
						"slope_degrees": 0.6195915341377258,
						"surface_water_permanence_pct": 0,
						"coast_distance_m": 466238.2470786276,
						"soil_drainage_class": "Well drained"
					},
					"climate": 171
				}
			},
			"geometry": {
				"type": "Point",
				"coordinates": [
					-112.194,
					33.53411428571429
				]
			}
		}
	]
}